{"type": "FeatureCollection", "features": [ {"type": "Feature", "properties": {"norad_id": 36230, "name": "FENGYUN 1C DEB", "group": "fengyun-1c-debris", "lat": -0.9353981254882554, "lon": 59.89219132882974, "alt_km": 1119.1245665209399, "timestamp": "2025-12-10T14:53:37.378965+00:00", "meta": {"OBJECT_NAME": "FENGYUN 1C DEB", "OBJECT_ID": "1999-025DVF", "EPOCH": "2025-12-09T10:57:40.047264", "MEAN_MOTION": 13.75251341, "ECCENTRICITY": 0.02176389, "INCLINATION": 99.5242, "RA_OF_ASC_NODE": 58.5726, "ARG_OF_PERICENTER": 150.5804, "MEAN_ANOMALY": 210.7803, "EPHEMERIS_TYPE": 0, "CLASSIFICATION_TYPE": "U", "NORAD_CAT_ID": 36230, "ELEMENT_SET_NO": 999, "REV_AT_EPOCH": 61841, "BSTAR": 0.0029401573, "MEAN_MOTION_DOT": 3.306e-05, "MEAN_MOTION_DDOT": 0}, "tle": {"line1": "1 36230U 99025DVF 25343.45671351  .00003306  00000+0  29402-2 0  9998", "line2": "2 36230  99.5242  58.5726 0217638 150.5804 210.7803 13.75251341618413"}}, "geometry": {"type": "Point", "coordinates": [59.89219132882974, -0.9353981254882554]}}, {"type": "Feature", "properties": {"norad_id": 36231, "name": "FENGYUN 1C DEB", "group": "fengyun-1c-debris", "lat": -20.227581297473918, "lon": -37.15145238117676, "alt_km": 813.7759368259158, "timestamp": "2025-12-10T14:53:37.378975+00:00", "meta": {"OBJECT_NAME": "FENGYUN 1C DEB", "OBJECT_ID": "1999-025DVG", "EPOCH": "2025-12-10T04:47:07.428192", "MEAN_MOTION": 14.12004975, "ECCENTRICITY": 0.006066, "INCLINATION": 98.6884, "RA_OF_ASC_NODE": 319.2105, "ARG_OF_PERICENTER": 340.7753, "MEAN_ANOMALY": 19.1131, "EPHEMERIS_TYPE": 0, "CLASSIFICATION_TYPE": "U", "NORAD_CAT_ID": 36231, "ELEMENT_SET_NO": 999, "REV_AT_EPOCH": 85507, "BSTAR": 0.00022480996, "MEAN_MOTION_DOT": 3.76e-06, "MEAN_MOTION_DDOT": 0}, "tle": {"line1": "1 36231U 99025DVG 25344.19939153  .00000376  00000+0  22481-3 0  9993", "line2": "2 36231  98.6884 319.2105 0060660 340.7753  19.1131 14.12004975855072"}}, "geometry": {"type": "Point", "coordinates": [-37.15145238117676, -20.227581297473918]}}, {"type": "Feature", "properties": {"norad_id": 36232, "name": "FENGYUN 1C DEB", "group": "fengyun-1c-debris", "lat": -43.60201658998263, "lon": 140.33629400998052, "alt_km": 942.3834296904406, "timestamp": "2025-12-10T14:53:37.378984+00:00", "meta": {"OBJECT_NAME": "FENGYUN 1C DEB", "OBJECT_ID": "1999-025DVH", "EPOCH": "2025-12-06T16:20:06.214272", "MEAN_MOTION": 14.12489244, "ECCENTRICITY": 0.01193626, "INCLINATION": 98.7041, "RA_OF_ASC_NODE": 324.8972, "ARG_OF_PERICENTER": 45.2635, "MEAN_ANOMALY": 315.8179, "EPHEMERIS_TYPE": 0, "CLASSIFICATION_TYPE": "U", "NORAD_CAT_ID": 36232, "ELEMENT_SET_NO": 999, "REV_AT_EPOCH": 61650, "BSTAR": 0.0005849679, "MEAN_MOTION_DOT": 1.114e-05, "MEAN_MOTION_DDOT": 0}, "tle": {"line1": "1 36232U 99025DVH 25340.68062748  .00001114  00000+0  58497-3 0  9998", "line2": "2 36232  98.7041 324.8972 0119362  45.2635 315.8179 14.12489244616500"}}, "geometry": {"type": "Point", "coordinates": [140.33629400998052, -43.60201658998263]}}, {"type": "Feature", "properties": {"norad_id": 36234, "name": "FENGYUN 1C DEB", "group": "fengyun-1c-debris", "lat": 48.044079817058154, "lon": -115.19685699236811, "alt_km": 1107.3153229588552, "timestamp": "2025-12-10T14:53:37.378993+00:00", "meta": {"OBJECT_NAME": "FENGYUN 1C DEB", "OBJECT_ID": "1999-025DVK", "EPOCH": "2025-12-08T10:31:28.850304", "MEAN_MOTION": 13.45655828, "ECCENTRICITY": 0.03174488, "INCLINATION": 99.0031, "RA_OF_ASC_NODE": 52.6849, "ARG_OF_PERICENTER": 39.1104, "MEAN_ANOMALY": 323.2521, "EPHEMERIS_TYPE": 0, "CLASSIFICATION_TYPE": "U", "NORAD_CAT_ID": 36234, "ELEMENT_SET_NO": 999, "REV_AT_EPOCH": 87889, "BSTAR": 0.00050484626, "MEAN_MOTION_DOT": 3.7e-06, "MEAN_MOTION_DDOT": 0}, "tle": {"line1": "1 36234U 99025DVK 25342.43852836  .00000370  00000+0  50485-3 0  9992", "line2": "2 36234  99.0031  52.6849 0317448  39.1104 323.2521 13.45655828878896"}}, "geometry": {"type": "Point", "coordinates": [-115.19685699236811, 48.044079817058154]}}, {"type": "Feature", "properties": {"norad_id": 36236, "name": "FENGYUN 1C DEB", "group": "fengyun-1c-debris", "lat": -23.961227884340033, "lon": 29.118533086143685, "alt_km": 865.2065399055045, "timestamp": "2025-12-10T14:53:37.379002+00:00", "meta": {"OBJECT_NAME": "FENGYUN 1C DEB", "OBJECT_ID": "1999-025DVM", "EPOCH": "2025-12-09T09:28:07.041216", "MEAN_MOTION": 13.8195283, "ECCENTRICITY": 0.01496223, "INCLINATION": 98.8503, "RA_OF_ASC_NODE": 23.997, "ARG_OF_PERICENTER": 7.2762, "MEAN_ANOMALY": 353.0517, "EPHEMERIS_TYPE": 0, "CLASSIFICATION_TYPE": "U", "NORAD_CAT_ID": 36236, "ELEMENT_SET_NO": 999, "REV_AT_EPOCH": 59701, "BSTAR": 0.000464945, "MEAN_MOTION_DOT": 5.03e-06, "MEAN_MOTION_DDOT": 0}, "tle": {"line1": "1 36236U 99025DVM 25343.39452594  .00000503  00000+0  46494-3 0  9990", "line2": "2 36236  98.8503  23.9970 0149622   7.2762 353.0517 13.81952830597019"}}, "geometry": {"type": "Point", "coordinates": [29.118533086143685, -23.961227884340033]}}, {"type": "Feature", "properties": {"norad_id": 36238, "name": "FENGYUN 1C DEB", "group": "fengyun-1c-debris", "lat": -63.12069639922707, "lon": 119.69282349568192, "alt_km": 847.8597667794129, "timestamp": "2025-12-10T14:53:37.379010+00:00", "meta": {"OBJECT_NAME": "FENGYUN 1C DEB", "OBJECT_ID": "1999-025DVP", "EPOCH": "2025-12-08T15:49:58.240704", "MEAN_MOTION": 14.1238865, "ECCENTRICITY": 0.00201825, "INCLINATION": 98.6467, "RA_OF_ASC_NODE": 315.2708, "ARG_OF_PERICENTER": 294.0016, "MEAN_ANOMALY": 65.9044, "EPHEMERIS_TYPE": 0, "CLASSIFICATION_TYPE": "U", "NORAD_CAT_ID": 36238, "ELEMENT_SET_NO": 999, "REV_AT_EPOCH": 86960, "BSTAR": 0.00014863142, "MEAN_MOTION_DOT": 2.32e-06, "MEAN_MOTION_DDOT": 0}, "tle": {"line1": "1 36238U 99025DVP 25342.65970186  .00000232  00000+0  14863-3 0  9996", "line2": "2 36238  98.6467 315.2708 0020182 294.0016  65.9044 14.12388650869600"}}, "geometry": {"type": "Point", "coordinates": [119.69282349568192, -63.12069639922707]}}, {"type": "Feature", "properties": {"norad_id": 36244, "name": "FENGYUN 1C DEB", "group": "fengyun-1c-debris", "lat": 50.6654056732606, "lon": 84.14808261609171, "alt_km": 821.7827398382178, "timestamp": "2025-12-10T14:53:37.379019+00:00", "meta": {"OBJECT_NAME": "FENGYUN 1C DEB", "OBJECT_ID": "1999-025DVV", "EPOCH": "2025-12-10T06:13:35.069088", "MEAN_MOTION": 14.24939547, "ECCENTRICITY": 0.00485316, "INCLINATION": 98.9256, "RA_OF_ASC_NODE": 94.837, "ARG_OF_PERICENTER": 291.7141, "MEAN_ANOMALY": 67.8875, "EPHEMERIS_TYPE": 0, "CLASSIFICATION_TYPE": "U", "NORAD_CAT_ID": 36244, "ELEMENT_SET_NO": 999, "REV_AT_EPOCH": 91943, "BSTAR": 0.0025574787, "MEAN_MOTION_DOT": 6.011e-05, "MEAN_MOTION_DDOT": 0}, "tle": {"line1": "1 36244U 99025DVV 25344.25943367  .00006011  00000+0  25575-2 0  9994", "line2": "2 36244  98.9256  94.8370 0048531 291.7141  67.8875 14.24939547919432"}}, "geometry": {"type": "Point", "coordinates": [84.14808261609171, 50.6654056732606]}}, {"type": "Feature", "properties": {"norad_id": 36247, "name": "FENGYUN 1C DEB", "group": "fengyun-1c-debris", "lat": -66.07266589262498, "lon": 16.918731763598487, "alt_km": 824.9641432971493, "timestamp": "2025-12-10T14:53:37.379028+00:00", "meta": {"OBJECT_NAME": "FENGYUN 1C DEB", "OBJECT_ID": "1999-025DVY", "EPOCH": "2025-12-01T11:45:50.986944", "MEAN_MOTION": 14.33529137, "ECCENTRICITY": 0.01878056, "INCLINATION": 98.2683, "RA_OF_ASC_NODE": 349.0587, "ARG_OF_PERICENTER": 67.2123, "MEAN_ANOMALY": 294.8783, "EPHEMERIS_TYPE": 0, "CLASSIFICATION_TYPE": "U", "NORAD_CAT_ID": 36247, "ELEMENT_SET_NO": 999, "REV_AT_EPOCH": 70101, "BSTAR": 0.00050385684, "MEAN_MOTION_DOT": 1.653e-05, "MEAN_MOTION_DDOT": 0}, "tle": {"line1": "1 36247U 99025DVY 25335.49017346  .00001653  00000+0  50386-3 0  9998", "line2": "2 36247  98.2683 349.0587 0187805  67.2123 294.8783 14.33529137701014"}}, "geometry": {"type": "Point", "coordinates": [16.918731763598487, -66.07266589262498]}}, {"type": "Feature", "properties": {"norad_id": 36254, "name": "FENGYUN 1C DEB", "group": "fengyun-1c-debris", "lat": 54.27044376149402, "lon": -75.3105006846044, "alt_km": 478.1080745885856, "timestamp": "2025-12-10T14:53:37.379037+00:00", "meta": {"OBJECT_NAME": "FENGYUN 1C DEB", "OBJECT_ID": "1999-025DWF", "EPOCH": "2025-12-05T14:18:33.750144", "MEAN_MOTION": 15.16014702, "ECCENTRICITY": 0.00460473, "INCLINATION": 99.5277, "RA_OF_ASC_NODE": 291.891, "ARG_OF_PERICENTER": 66.6494, "MEAN_ANOMALY": 293.9567, "EPHEMERIS_TYPE": 0, "CLASSIFICATION_TYPE": "U", "NORAD_CAT_ID": 36254, "ELEMENT_SET_NO": 999, "REV_AT_EPOCH": 60668, "BSTAR": 0.0055743559, "MEAN_MOTION_DOT": 0.00111504, "MEAN_MOTION_DDOT": 0}, "tle": {"line1": "1 36254U 99025DWF 25339.59622396  .00111504  00000+0  55744-2 0  9997", "line2": "2 36254  99.5277 291.8910 0046047  66.6494 293.9567 15.16014702606681"}}, "geometry": {"type": "Point", "coordinates": [-75.3105006846044, 54.27044376149402]}}, {"type": "Feature", "properties": {"norad_id": 36255, "name": "FENGYUN 1C DEB", "group": "fengyun-1c-debris", "lat": 45.38861615869352, "lon": -104.63271145495136, "alt_km": 790.7730484157619, "timestamp": "2025-12-10T14:53:37.379047+00:00", "meta": {"OBJECT_NAME": "FENGYUN 1C DEB", "OBJECT_ID": "1999-025DWG", "EPOCH": "2025-12-08T13:21:35.838720", "MEAN_MOTION": 14.36543317, "ECCENTRICITY": 0.0063675, "INCLINATION": 99.4343, "RA_OF_ASC_NODE": 262.8115, "ARG_OF_PERICENTER": 175.6375, "MEAN_ANOMALY": 3.5448, "EPHEMERIS_TYPE": 0, "CLASSIFICATION_TYPE": "U", "NORAD_CAT_ID": 36255, "ELEMENT_SET_NO": 999, "REV_AT_EPOCH": 63950, "BSTAR": 0.0012922, "MEAN_MOTION_DOT": 3.835e-05, "MEAN_MOTION_DDOT": 0}, "tle": {"line1": "1 36255U 99025DWG 25342.55666480  .00003835  00000+0  12922-2 0  9998", "line2": "2 36255  99.4343 262.8115 0063675 175.6375   3.5448 14.36543317639505"}}, "geometry": {"type": "Point", "coordinates": [-104.63271145495136, 45.38861615869352]}}]}